{
    "satellites": [
        {
            "name": "starlink324",
            "title": "Starlink-324 (G6-94)",
            "tle": [
                "1 66541C 25265AB  25333.10673611 -.01730300  00000+0 -83259-2 0  3339",
                "2 66541  43.0006 135.4535 0001501 266.5211  25.2457 15.83395074    14"
            ],
            "stdMag": 5,
            "noradId": "66541",
            "tleUrl": "http://celestrak.org/NORAD/elements/supplemental/sup-gp.php?FILE=starlink&FORMAT=tle",
            "launchDate": "2025-11-19T00:12:20.000Z",
            "active": true,
            "batch": [
                {
                    "noradId": "66541",
                    "tle": [
                        "1 66541C 25265AB  25333.10673611 -.01730300  00000+0 -83259-2 0  3339",
                        "2 66541  43.0006 135.4535 0001501 266.5211  25.2457 15.83395074    14"
                    ]
                },
                {
                    "noradId": "66540",
                    "tle": [
                        "1 66540C 25265AA  25333.10465278 -.01724200  00000+0 -82973-2 0  3330",
                        "2 66540  43.0005 135.4714 0001421 265.5447  12.3804 15.83386863    11"
                    ]
                },
                {
                    "noradId": "66544",
                    "tle": [
                        "1 66544C 25265AE  25333.10465278 -.01756200  00000+0 -84473-2 0  3336",
                        "2 66544  43.0005 135.4508 0001486 263.9371  22.1050 15.83430062    18"
                    ]
                },
                {
                    "noradId": "66539",
                    "tle": [
                        "1 66539C 25265Z   25333.10465278 -.01715400  00000+0 -82553-2 0  3334",
                        "2 66539  43.0007 135.4760 0001447 264.2582  11.6108 15.83377222    14"
                    ]
                },
                {
                    "noradId": "66542",
                    "tle": [
                        "1 66542C 25265AC  25333.10534722 -.01741100  00000+0 -83809-2 0  3330",
                        "2 66542  43.0006 135.4568 0001476 267.4189  18.6108 15.83398782    14"
                    ]
                },
                {
                    "noradId": "66534",
                    "tle": [
                        "1 66534C 25265U   25333.10673611 -.01667300  00000+0 -80046-2 0  3331",
                        "2 66534  43.0007 135.4917 0001394 265.8525  10.9369 15.83379536    19"
                    ]
                },
                {
                    "noradId": "66532",
                    "tle": [
                        "1 66532C 25265S   25333.10395833 -.01645100  00000+0 -78760-2 0  3330",
                        "2 66532  43.0004 135.5203 0001405 266.3407 349.8934 15.83415703    10"
                    ]
                },
                {
                    "noradId": "66533",
                    "tle": [
                        "1 66533C 25265T   25333.10326389 -.01655800  00000+0 -79349-2 0  3333",
                        "2 66533  43.0004 135.5188 0001445 266.8995 347.7069 15.83405961    15"
                    ]
                },
                {
                    "noradId": "66528",
                    "tle": [
                        "1 66528C 25265N   25333.10604167 -.01610000  00000+0 -77011-2 0  3337",
                        "2 66528  43.0005 135.5292 0001415 267.4472 352.1206 15.83399184    12"
                    ]
                },
                {
                    "noradId": "66524",
                    "tle": [
                        "1 66524C 25265J   25333.10465278 -.01568400  00000+0 -74835-2 0  3338",
                        "2 66524  43.0004 135.5595 0001414 268.6168 334.1770 15.83410089    11"
                    ]
                },
                {
                    "noradId": "66531",
                    "tle": [
                        "1 66531C 25265R   25333.10256944 -.01634500  00000+0 -78184-2 0  3330",
                        "2 66531  43.0005 135.5342 0001501 267.1038 338.9635 15.83424469    16"
                    ]
                },
                {
                    "noradId": "66529",
                    "tle": [
                        "1 66529C 25265P   25333.10465278 -.01619800  00000+0 -77546-2 0  3336",
                        "2 66529  43.0005 135.5315 0001462 267.7118 346.2641 15.83391607    10"
                    ]
                },
                {
                    "noradId": "66527",
                    "tle": [
                        "1 66527C 25265M   25333.10534722 -.01598200  00000+0 -76384-2 0  3334",
                        "2 66527  43.0004 135.5393 0001452 267.9969 345.3605 15.83404665    17"
                    ]
                },
                {
                    "noradId": "66530",
                    "tle": [
                        "1 66530C 25265Q   25333.10256944 -.01626200  00000+0 -77802-2 0  3333",
                        "2 66530  43.0005 135.5396 0001411 268.1989 335.8583 15.83411202    19"
                    ]
                },
                {
                    "noradId": "66525",
                    "tle": [
                        "1 66525C 25265K   25333.10951389 -.01577400  00000+0 -75320-2 0  3332",
                        "2 66525  43.0004 135.5249 0001380 267.5113   5.0827 15.83404144    10"
                    ]
                },
                {
                    "noradId": "66520",
                    "tle": [
                        "1 66520C 25265E   25333.10743056 -.01529900  00000+0 -72892-2 0  3330",
                        "2 66520  43.0003 135.5649 0001471 268.7124 341.1642 15.83402757    11"
                    ]
                },
                {
                    "noradId": "66543",
                    "tle": [
                        "1 66543C 25265AD  25333.10812500 -.01747800  00000+0 -84157-2 0  3334",
                        "2 66543  43.0006 135.4340 0001549 268.7300  35.1965 15.83398603    10"
                    ]
                },
                {
                    "noradId": "66521",
                    "tle": [
                        "1 66521C 25265F   25333.10951389 -.01537800  00000+0 -73236-2 0  3332",
                        "2 66521  43.0004 135.5473 0001468 266.1194 357.5144 15.83419604    10"
                    ]
                },
                {
                    "noradId": "66522",
                    "tle": [
                        "1 66522C 25265G   25333.10465278 -.01547300  00000+0 -73724-2 0  3338",
                        "2 66522  43.0004 135.5713 0001409 267.5943 330.6746 15.83419702    19"
                    ]
                },
                {
                    "noradId": "66518",
                    "tle": [
                        "1 66518C 25265C   25333.10743056 -.01507400  00000+0 -71709-2 0  3334",
                        "2 66518  43.0003 135.5768 0001438 267.9659 337.3458 15.83412546    16"
                    ]
                },
                {
                    "noradId": "66538",
                    "tle": [
                        "1 66538C 25265Y   25333.10256944 -.01705200  00000+0 -81944-2 0  3331",
                        "2 66538  43.0007 135.4950 0001432 265.9906 355.6775 15.83396860    16"
                    ]
                },
                {
                    "noradId": "66523",
                    "tle": [
                        "1 66523C 25265H   25333.10326389 -.01558100  00000+0 -74267-2 0  3331",
                        "2 66523  43.0005 135.5741 0001325 263.7471 328.8233 15.83422443    19"
                    ]
                },
                {
                    "noradId": "66519",
                    "tle": [
                        "1 66519C 25265D   25333.10395833 -.01518800  00000+0 -72269-2 0  3339",
                        "2 66519  43.0005 135.5921 0001395 266.0802 321.6886 15.83419367    11"
                    ]
                },
                {
                    "noradId": "66536",
                    "tle": [
                        "1 66536C 25265W   25333.10743056 -.01681900  00000+0 -80731-2 0  3337",
                        "2 66536  43.0006 135.4774 0001485 266.7118  18.0743 15.83398655    18"
                    ]
                },
                {
                    "noradId": "66535",
                    "tle": [
                        "1 66535C 25265V   25333.11020833 -.01674200  00000+0 -80414-2 0  3331",
                        "2 66535  43.0007 135.4652 0001572 268.4514  30.2006 15.83375995    19"
                    ]
                },
                {
                    "noradId": "66517",
                    "tle": [
                        "1 66517C 25265B   25333.10465278 -.01497700  00000+0 -71249-2 0  3330",
                        "2 66517  43.0005 135.5990 0001350 266.0889 321.4001 15.83403379    14"
                    ]
                },
                {
                    "noradId": "66537",
                    "tle": [
                        "1 66537C 25265X   25333.10881944 -.01693400  00000+0 -81373-2 0  3338",
                        "2 66537  43.0007 135.4628 0001509 269.4128  25.5875 15.83386568    15"
                    ]
                },
                {
                    "noradId": "66526",
                    "tle": [
                        "1 66526C 25265L   25333.10604167 -.01588200  00000+0 -75849-2 0  3338",
                        "2 66526  43.0005 135.5405 0001472 268.0076 347.0281 15.83410829    12"
                    ]
                }
            ]
        }
    ],
    "config": {}
}